{
"type": "FeatureCollection",
"name": "acute_hospitals",
"crs": { "type": "name", "properties": { "name": "urn:ogc:def:crs:OGC:1.3:CRS84" } },
"features": [
{ "type": "Feature", "properties": { "id": "node/6746490215", "name": "Farrer Park Hospital", "operator": "The Farrer Park Company", "emergency": null, "postcode": "217562", "name_zh": "花拉公园医院", "name_ms": "Hospital Farrer Park", "name_ta": null }, "geometry": { "type": "Point", "coordinates": [ 103.854, 1.3126 ] } },
{ "type": "Feature", "properties": { "id": "way/34403524", "name": "Changi General Hospital", "operator": null, "emergency": null, "postcode": null, "name_zh": null, "name_ms": "Hospital Besar Changi", "name_ta": null }, "geometry": { "type": "Polygon", "coordinates": [ [ [ 103.9473266, 1.3412255 ], [ 103.9474771, 1.3410452 ], [ 103.9477246, 1.3407488 ], [ 103.9480979, 1.3410633 ], [ 103.9483967, 1.3406893 ], [ 103.9480302, 1.3403833 ], [ 103.9492114, 1.3389923 ], [ 103.9493172, 1.3389606 ], [ 103.94941, 1.3389723 ], [ 103.949478, 1.3390142 ], [ 103.9508842, 1.3401965 ], [ 103.9496567, 1.3416256 ], [ 103.9495319, 1.3416437 ], [ 103.9493416, 1.3414918 ], [ 103.9492523, 1.3416035 ], [ 103.948831, 1.3412585 ], [ 103.9484006, 1.341767 ], [ 103.9480002, 1.3415027 ], [ 103.9473266, 1.3412255 ] ] ] } },
{ "type": "Feature", "properties": { "id": "way/252835078", "name": "Thomson Medical Centre", "operator": null, "emergency": null, "postcode": "300001", "name_zh": "汤申医疗中心", "name_ms": null, "name_ta": null }, "geometry": { "type": "Polygon", "coordinates": [ [ [ 103.8412715, 1.3255828 ], [ 103.8412895, 1.3254151 ], [ 103.8413625, 1.3254229 ], [ 103.8413802, 1.3252583 ], [ 103.8413006, 1.3252497 ], [ 103.8413129, 1.3251361 ], [ 103.8413569, 1.3251408 ], [ 103.8413585, 1.3251265 ], [ 103.8414987, 1.3251416 ], [ 103.8415007, 1.3251226 ], [ 103.8416351, 1.325137 ], [ 103.8416266, 1.3252165 ], [ 103.8416608, 1.3252202 ], [ 103.8417079, 1.3252252 ], [ 103.8417013, 1.3252873 ], [ 103.8417087, 1.3252881 ], [ 103.8417009, 1.325362 ], [ 103.8417079, 1.3253627 ], [ 103.8416999, 1.3254376 ], [ 103.8417095, 1.3254386 ], [ 103.8417025, 1.3255041 ], [ 103.8417097, 1.3255048 ], [ 103.8417022, 1.3255751 ], [ 103.8417133, 1.3255763 ], [ 103.841704, 1.3256633 ], [ 103.8415766, 1.3256496 ], [ 103.8415826, 1.3255935 ], [ 103.8414798, 1.3255825 ], [ 103.8414774, 1.3256049 ], [ 103.8412715, 1.3255828 ] ] ] } },
{ "type": "Feature", "properties": { "id": "way/41663272", "name": "KK Women's and Children's Hospital", "operator": null, "emergency": "yes", "postcode": null, "name_zh": "竹脚妇幼医院", "name_ms": "Hospital Wanita dan Kanak-kanak KK", "name_ta": null }, "geometry": { "type": "Polygon", "coordinates": [ [ [ 103.8461372, 1.3105012 ], [ 103.8462107, 1.3103343 ], [ 103.8463394, 1.3101749 ], [ 103.8462597, 1.3101094 ], [ 103.8462641, 1.309938 ], [ 103.8468886, 1.3093165 ], [ 103.8474176, 1.3098673 ], [ 103.8474264, 1.3112005 ], [ 103.84692, 1.3117169 ], [ 103.8468814, 1.3117563 ], [ 103.8468632, 1.3117749 ], [ 103.8462516, 1.3111181 ], [ 103.846244, 1.3109568 ], [ 103.8463086, 1.3108939 ], [ 103.8462114, 1.3107904 ], [ 103.8461556, 1.3106726 ], [ 103.8461461, 1.3106526 ], [ 103.8461405, 1.3105582 ], [ 103.8461372, 1.3105012 ] ] ] } },
{ "type": "Feature", "properties": { "id": "way/47134077", "name": "Raffles Hospital", "operator": null, "emergency": null, "postcode": "188770", "name_zh": "莱佛士医院", "name_ms": "Hospital Raffles", "name_ta": null }, "geometry": { "type": "Polygon", "coordinates": [ [ [ 103.8566085, 1.3010945 ], [ 103.8566313, 1.3010729 ], [ 103.8567858, 1.3009265 ], [ 103.8568922, 1.3008377 ], [ 103.8569363, 1.3008005 ], [ 103.8571374, 1.3006261 ], [ 103.8571965, 1.3006298 ], [ 103.8576856, 1.3011776 ], [ 103.8576855, 1.3012353 ], [ 103.8575833, 1.3013205 ], [ 103.8575085, 1.3013823 ], [ 103.8573788, 1.3014894 ], [ 103.8571233, 1.3017004 ], [ 103.8570231, 1.3016951 ], [ 103.8568372, 1.3014933 ], [ 103.8569137, 1.3014163 ], [ 103.8566085, 1.3010945 ] ] ] } },
{ "type": "Feature", "properties": { "id": "way/41890511", "name": "Gleneagles Hospital", "operator": null, "emergency": "yes", "postcode": null, "name_zh": "鹰阁医院", "name_ms": "Hospital Gleneagles", "name_ta": null }, "geometry": { "type": "Polygon", "coordinates": [ [ [ 103.8190438, 1.3071071 ], [ 103.8199028, 1.3069014 ], [ 103.820026, 1.3068498 ], [ 103.820198, 1.306754 ], [ 103.8206153, 1.3075194 ], [ 103.8205191, 1.307701 ], [ 103.8204134, 1.3079809 ], [ 103.8197543, 1.3079544 ], [ 103.81935, 1.3076669 ], [ 103.8190613, 1.3071391 ], [ 103.8190438, 1.3071071 ] ] ] } },
{ "type": "Feature", "properties": { "id": "way/397219610", "name": "Parkway East Hospital", "operator": null, "emergency": null, "postcode": null, "name_zh": "百汇东岸医院", "name_ms": "Hospital Parkway East", "name_ta": null }, "geometry": { "type": "Polygon", "coordinates": [ [ [ 103.908408, 1.3152705 ], [ 103.9086137, 1.3147821 ], [ 103.9095159, 1.3149639 ], [ 103.9095536, 1.3150258 ], [ 103.9093688, 1.3154624 ], [ 103.908408, 1.3152705 ] ] ] } },
{ "type": "Feature", "properties": { "id": "relation/2303411", "name": "Tan Tock Seng Hospital", "operator": null, "emergency": "yes", "postcode": "308433", "name_zh": "陈笃生医院", "name_ms": "Hospital Tan Tock Seng", "name_ta": null }, "geometry": { "type": "MultiPolygon", "coordinates": [ [ [ [ 103.8447505, 1.3212146 ], [ 103.8447674, 1.3211985 ], [ 103.8447879, 1.32118 ], [ 103.8448063, 1.3211635 ], [ 103.8448181, 1.3211525 ], [ 103.8452536, 1.3207567 ], [ 103.8454012, 1.3206187 ], [ 103.8458237, 1.3202347 ], [ 103.8459815, 1.3204082 ], [ 103.8458296, 1.3205462 ], [ 103.8458926, 1.3206155 ], [ 103.8458474, 1.3206566 ], [ 103.8458325, 1.3206718 ], [ 103.8459747, 1.3208213 ], [ 103.8460333, 1.3207677 ], [ 103.8461296, 1.3207751 ], [ 103.8462241, 1.320889 ], [ 103.8462268, 1.3209775 ], [ 103.8461688, 1.3210281 ], [ 103.8462789, 1.32115 ], [ 103.8463377, 1.3210969 ], [ 103.8464064, 1.3211729 ], [ 103.8463476, 1.321226 ], [ 103.846422, 1.3213051 ], [ 103.8465999, 1.3211498 ], [ 103.846579, 1.3211259 ], [ 103.8467171, 1.3210053 ], [ 103.8466875, 1.3209748 ], [ 103.8468008, 1.3208843 ], [ 103.8471106, 1.3211149 ], [ 103.8469453, 1.3212666 ], [ 103.8467252, 1.3214588 ], [ 103.8466958, 1.3214252 ], [ 103.8466, 1.3215089 ], [ 103.8467612, 1.321684 ], [ 103.8464326, 1.3216739 ], [ 103.846376, 1.3217257 ], [ 103.8462467, 1.3218439 ], [ 103.8462104, 1.3218771 ], [ 103.8462052, 1.3221112 ], [ 103.8462023, 1.3222365 ], [ 103.8458976, 1.3219013 ], [ 103.8457782, 1.32201 ], [ 103.845928, 1.3221744 ], [ 103.8457624, 1.3223252 ], [ 103.845604, 1.3221514 ], [ 103.845666, 1.3220931 ], [ 103.845575, 1.3219925 ], [ 103.8455127, 1.3220512 ], [ 103.8452201, 1.32173 ], [ 103.8452812, 1.3216714 ], [ 103.8451942, 1.3215753 ], [ 103.8451328, 1.3216342 ], [ 103.8449791, 1.3214656 ], [ 103.8448923, 1.3213702 ], [ 103.8447505, 1.3212146 ] ], [ [ 103.8450843, 1.321207 ], [ 103.8450994, 1.3212236 ], [ 103.8451295, 1.3211963 ], [ 103.8451953, 1.3212687 ], [ 103.8451516, 1.3213085 ], [ 103.8451998, 1.3213614 ], [ 103.8453002, 1.32127 ], [ 103.8452478, 1.3212125 ], [ 103.8454305, 1.3210461 ], [ 103.845354, 1.3209619 ], [ 103.8450843, 1.321207 ] ], [ [ 103.8452315, 1.3213947 ], [ 103.8456819, 1.3218891 ], [ 103.8457937, 1.3217873 ], [ 103.8456003, 1.3215732 ], [ 103.8453312, 1.321304 ], [ 103.8452315, 1.3213947 ] ], [ [ 103.8455497, 1.3214354 ], [ 103.8456695, 1.3215669 ], [ 103.8461154, 1.3215942 ], [ 103.846161, 1.3215436 ], [ 103.8461664, 1.32115 ], [ 103.8460016, 1.3209977 ], [ 103.8456178, 1.3209838 ], [ 103.8455677, 1.3210296 ], [ 103.8455497, 1.3214354 ] ] ], [ [ [ 103.8465527, 1.3205612 ], [ 103.8465751, 1.3205176 ], [ 103.8465925, 1.3205187 ], [ 103.8466746, 1.3205196 ], [ 103.8472414, 1.3205352 ], [ 103.8472422, 1.320706 ], [ 103.8473138, 1.320706 ], [ 103.847314, 1.3205222 ], [ 103.8476577, 1.320525 ], [ 103.8476584, 1.3205672 ], [ 103.847366, 1.3208039 ], [ 103.8473137, 1.3208059 ], [ 103.8473138, 1.3207476 ], [ 103.8472424, 1.3207476 ], [ 103.8472431, 1.3209083 ], [ 103.8471682, 1.3209912 ], [ 103.8465527, 1.3205612 ] ] ] ] } },
{ "type": "Feature", "properties": { "id": "way/751064398", "name": "Mount Elizabeth Hospital", "operator": null, "emergency": null, "postcode": null, "name_zh": "伊丽莎白医院", "name_ms": "Hospital Mount Elizabeth", "name_ta": null }, "geometry": { "type": "Polygon", "coordinates": [ [ [ 103.8346587, 1.3045034 ], [ 103.8347664, 1.3044163 ], [ 103.8352866, 1.3042482 ], [ 103.8353875, 1.3042447 ], [ 103.8355213, 1.3043102 ], [ 103.835672, 1.3044906 ], [ 103.8358218, 1.3048802 ], [ 103.8358755, 1.3051187 ], [ 103.8358928, 1.3052736 ], [ 103.8359149, 1.3055574 ], [ 103.835903, 1.3058892 ], [ 103.8351164, 1.3060701 ], [ 103.8351327, 1.3058486 ], [ 103.8351958, 1.3058328 ], [ 103.8351875, 1.3051139 ], [ 103.8350147, 1.3047225 ], [ 103.8347851, 1.3047052 ], [ 103.8346587, 1.3045034 ] ] ] } },
{ "type": "Feature", "properties": { "id": "way/260549167", "name": "Mount Elizabeth Novena Hospital", "operator": "Parkway Health", "emergency": null, "postcode": null, "name_zh": "伊丽莎白医诺维娜院", "name_ms": "Hospital Mount Elizabeth Novena", "name_ta": null }, "geometry": { "type": "Polygon", "coordinates": [ [ [ 103.8436495, 1.3220638 ], [ 103.8436883, 1.3215434 ], [ 103.8437762, 1.3213417 ], [ 103.8438395, 1.3213679 ], [ 103.8445115, 1.3216264 ], [ 103.8446189, 1.3217264 ], [ 103.8453615, 1.322661 ], [ 103.8439314, 1.3226584 ], [ 103.8437373, 1.3226581 ], [ 103.8436495, 1.3220638 ] ] ] } },
{ "type": "Feature", "properties": { "id": "way/368005263", "name": "Ng Teng Fong General Hospital", "operator": "Jurong Health", "emergency": "yes", "postcode": "609606", "name_zh": "黄廷方综合医院0", "name_ms": "Hospital Besar Ng Teng Fong", "name_ta": null }, "geometry": { "type": "Polygon", "coordinates": [ [ [ 103.7448531, 1.3336214 ], [ 103.7448539, 1.3335836 ], [ 103.744862, 1.3335373 ], [ 103.7448776, 1.333503 ], [ 103.7448921, 1.3334809 ], [ 103.7451602, 1.3332685 ], [ 103.7455953, 1.3329349 ], [ 103.7458889, 1.3327106 ], [ 103.745924, 1.332695 ], [ 103.7459677, 1.3326948 ], [ 103.7460093, 1.3327042 ], [ 103.7460384, 1.3327205 ], [ 103.7460607, 1.3327411 ], [ 103.7460883, 1.3327666 ], [ 103.7461095, 1.332797 ], [ 103.7461263, 1.3328359 ], [ 103.7461298, 1.3328794 ], [ 103.7461274, 1.332902 ], [ 103.7461133, 1.3329265 ], [ 103.7459831, 1.3330442 ], [ 103.7460266, 1.3330488 ], [ 103.746071, 1.3330548 ], [ 103.7461074, 1.333068 ], [ 103.74614, 1.3330888 ], [ 103.7461675, 1.3331224 ], [ 103.7461942, 1.3331722 ], [ 103.7462027, 1.3332042 ], [ 103.7462049, 1.3332365 ], [ 103.7462015, 1.3332637 ], [ 103.7461935, 1.3332905 ], [ 103.7461795, 1.3333173 ], [ 103.7461601, 1.3333429 ], [ 103.745206, 1.3340735 ], [ 103.7451826, 1.3340859 ], [ 103.7451552, 1.3340944 ], [ 103.7451226, 1.3340977 ], [ 103.7450912, 1.3340962 ], [ 103.7450588, 1.3340877 ], [ 103.74503, 1.3340738 ], [ 103.7450022, 1.3340538 ], [ 103.7449849, 1.3340333 ], [ 103.7449708, 1.3340135 ], [ 103.7449588, 1.3339898 ], [ 103.7449513, 1.3339625 ], [ 103.7449477, 1.3339344 ], [ 103.7449483, 1.3339059 ], [ 103.7449559, 1.3338744 ], [ 103.7449713, 1.333839 ], [ 103.7449704, 1.3338213 ], [ 103.7449639, 1.3338039 ], [ 103.7448758, 1.3336944 ], [ 103.7448598, 1.333661 ], [ 103.7448531, 1.3336214 ] ] ] } },
{ "type": "Feature", "properties": { "id": "way/586389089", "name": "Woodlands Hospital", "operator": null, "emergency": null, "postcode": null, "name_zh": null, "name_ms": null, "name_ta": null }, "geometry": { "type": "Polygon", "coordinates": [ [ [ 103.7925771, 1.4244306 ], [ 103.7933599, 1.4240527 ], [ 103.7952752, 1.4232984 ], [ 103.7955243, 1.4234602 ], [ 103.7966127, 1.4247206 ], [ 103.7965203, 1.424803 ], [ 103.7964073, 1.4249953 ], [ 103.7959068, 1.4254266 ], [ 103.7958932, 1.4257157 ], [ 103.7959415, 1.4257999 ], [ 103.7958878, 1.4258237 ], [ 103.7941814, 1.4257371 ], [ 103.794049, 1.4257052 ], [ 103.7938447, 1.4256974 ], [ 103.7937444, 1.4257172 ], [ 103.7931437, 1.4256812 ], [ 103.7931652, 1.4250623 ], [ 103.7933331, 1.4249754 ], [ 103.7939889, 1.4250079 ], [ 103.7940143, 1.424625 ], [ 103.7934603, 1.4245939 ], [ 103.7928235, 1.424921 ], [ 103.7925771, 1.4244306 ] ] ] } },
{ "type": "Feature", "properties": { "id": "way/575304529", "name": "Buangkok Green Medical Park", "operator": null, "emergency": null, "postcode": null, "name_zh": "万国埔医疗园", "name_ms": null, "name_ta": null }, "geometry": { "type": "Polygon", "coordinates": [ [ [ 103.8824258, 1.382908 ], [ 103.8824352, 1.38133 ], [ 103.8824538, 1.3812553 ], [ 103.8838735, 1.3798313 ], [ 103.8840372, 1.3797738 ], [ 103.8841277, 1.3797331 ], [ 103.8841894, 1.3796915 ], [ 103.884223, 1.3796245 ], [ 103.8842511, 1.3796017 ], [ 103.8843826, 1.3796026 ], [ 103.884691, 1.3795534 ], [ 103.8850421, 1.3795552 ], [ 103.8852301, 1.3795601 ], [ 103.885948, 1.379644 ], [ 103.8861501, 1.3797049 ], [ 103.8863596, 1.3797914 ], [ 103.8865887, 1.3799523 ], [ 103.8867817, 1.3801196 ], [ 103.8861755, 1.3806545 ], [ 103.8870465, 1.381463 ], [ 103.887005, 1.3830566 ], [ 103.8871096, 1.383163 ], [ 103.8854332, 1.384584 ], [ 103.8848251, 1.3850678 ], [ 103.8846856, 1.3851643 ], [ 103.8845623, 1.3851643 ], [ 103.8844013, 1.3849847 ], [ 103.8841611, 1.3847184 ], [ 103.8838676, 1.3843773 ], [ 103.8833338, 1.3837995 ], [ 103.8825908, 1.3830741 ], [ 103.8824258, 1.382908 ] ] ] } },
{ "type": "Feature", "properties": { "id": "way/238933465", "name": "National University Hospital", "operator": null, "emergency": "yes", "postcode": null, "name_zh": "国立大学医院", "name_ms": "Hospital Universiti Nasional Singapura", "name_ta": "தேசிய பல்கலைக்கழக மருத்துவமனையில்" }, "geometry": { "type": "Polygon", "coordinates": [ [ [ 103.781308, 1.2942007 ], [ 103.7813878, 1.2938816 ], [ 103.7816327, 1.2936125 ], [ 103.7817166, 1.2934183 ], [ 103.7817623, 1.2931515 ], [ 103.7816931, 1.293093 ], [ 103.7814009, 1.2928789 ], [ 103.7814552, 1.2928294 ], [ 103.78183, 1.2927166 ], [ 103.7826704, 1.2924687 ], [ 103.7826914, 1.2924625 ], [ 103.7830154, 1.2922608 ], [ 103.783209, 1.2919967 ], [ 103.7833197, 1.2918501 ], [ 103.7834372, 1.2917706 ], [ 103.7838554, 1.2921375 ], [ 103.7839471, 1.29227 ], [ 103.7841696, 1.2924615 ], [ 103.7843708, 1.2926132 ], [ 103.7846391, 1.2928774 ], [ 103.7849101, 1.2931495 ], [ 103.7849678, 1.2932071 ], [ 103.7849932, 1.2932724 ], [ 103.7849987, 1.2934128 ], [ 103.7849304, 1.2936541 ], [ 103.7848851, 1.2940094 ], [ 103.7848569, 1.2941856 ], [ 103.7847765, 1.2943576 ], [ 103.7843977, 1.2948497 ], [ 103.7840275, 1.2953752 ], [ 103.7836783, 1.2959749 ], [ 103.7835, 1.2961972 ], [ 103.7833086, 1.2964051 ], [ 103.7830962, 1.2965841 ], [ 103.7828663, 1.2967332 ], [ 103.7827153, 1.2968103 ], [ 103.7825684, 1.2968552 ], [ 103.7822066, 1.2969222 ], [ 103.782161, 1.2967077 ], [ 103.7822334, 1.2963808 ], [ 103.7821837, 1.2961353 ], [ 103.7821825, 1.2958687 ], [ 103.7821261, 1.2955629 ], [ 103.7821074, 1.2953752 ], [ 103.7821127, 1.2950293 ], [ 103.7819464, 1.2949676 ], [ 103.7816863, 1.2949148 ], [ 103.7816299, 1.2949033 ], [ 103.7813766, 1.2943973 ], [ 103.781308, 1.2942007 ] ] ] } },
{ "type": "Feature", "properties": { "id": "way/109104578", "name": "Alexandra Hospital", "operator": null, "emergency": null, "postcode": null, "name_zh": "亚历山大医院", "name_ms": "Hospital Alexandra", "name_ta": null }, "geometry": { "type": "Polygon", "coordinates": [ [ [ 103.7992468, 1.2874911 ], [ 103.7993004, 1.2869226 ], [ 103.7993755, 1.2863542 ], [ 103.7995241, 1.2859871 ], [ 103.7995579, 1.2859037 ], [ 103.7997939, 1.2855604 ], [ 103.8000514, 1.2852499 ], [ 103.8003733, 1.284971 ], [ 103.8006308, 1.2849281 ], [ 103.8011243, 1.2850032 ], [ 103.801635, 1.2849807 ], [ 103.8017544, 1.2850224 ], [ 103.8018748, 1.2851212 ], [ 103.8021629, 1.2855561 ], [ 103.8023576, 1.2860002 ], [ 103.8024577, 1.2862536 ], [ 103.8027438, 1.2866652 ], [ 103.8031086, 1.2869763 ], [ 103.8030872, 1.2871372 ], [ 103.8001373, 1.2888641 ], [ 103.799869, 1.2888533 ], [ 103.799279, 1.2887675 ], [ 103.7992575, 1.2880596 ], [ 103.7992468, 1.2874911 ] ] ] } },
{ "type": "Feature", "properties": { "id": "way/75468299", "name": "Singapore General Hospital", "operator": null, "emergency": null, "postcode": null, "name_zh": "新加坡中央医院", "name_ms": "Hospital Besar Singapore", "name_ta": "சிங்கப்பூர் தேசிய மருத்துவமனை" }, "geometry": { "type": "Polygon", "coordinates": [ [ [ 103.8300088, 1.2796077 ], [ 103.8301818, 1.2795018 ], [ 103.830328, 1.2795313 ], [ 103.8307638, 1.2792189 ], [ 103.8309694, 1.2791263 ], [ 103.831598, 1.2791693 ], [ 103.8315913, 1.2793959 ], [ 103.8319742, 1.2796654 ], [ 103.8319512, 1.2801863 ], [ 103.832305, 1.2802848 ], [ 103.8323249, 1.2802211 ], [ 103.8329929, 1.2803432 ], [ 103.8336129, 1.2798745 ], [ 103.8336499, 1.2798357 ], [ 103.8330874, 1.2790142 ], [ 103.8328646, 1.2786897 ], [ 103.8326201, 1.2786046 ], [ 103.8323278, 1.2784345 ], [ 103.8321591, 1.2782435 ], [ 103.8320325, 1.2780122 ], [ 103.8320184, 1.277919 ], [ 103.8320392, 1.2778416 ], [ 103.8320608, 1.2777842 ], [ 103.8320835, 1.2777554 ], [ 103.8330406, 1.2772616 ], [ 103.833476, 1.2769529 ], [ 103.8338366, 1.2767108 ], [ 103.8340738, 1.2765515 ], [ 103.8344175, 1.2763047 ], [ 103.8344905, 1.2762818 ], [ 103.8345855, 1.276264 ], [ 103.8348821, 1.2762663 ], [ 103.8351542, 1.2763284 ], [ 103.835476, 1.2765644 ], [ 103.8370128, 1.2778352 ], [ 103.8384761, 1.2788024 ], [ 103.8388569, 1.2791172 ], [ 103.8394688, 1.2797805 ], [ 103.8391684, 1.2805742 ], [ 103.8389066, 1.2809441 ], [ 103.8384925, 1.2812928 ], [ 103.8362163, 1.2826783 ], [ 103.8359159, 1.2827319 ], [ 103.8356906, 1.2827319 ], [ 103.8354975, 1.2826675 ], [ 103.8336274, 1.2821319 ], [ 103.8325421, 1.2807983 ], [ 103.8316262, 1.2811523 ], [ 103.8308644, 1.2806348 ], [ 103.8300088, 1.2796077 ] ] ] } },
{ "type": "Feature", "properties": { "id": "way/746034993", "name": "Khoo Teck Puat Hospital", "operator": null, "emergency": null, "postcode": "768828", "name_zh": "邱德拔医院", "name_ms": "Hospital Khoo Teck Puat", "name_ta": null }, "geometry": { "type": "Polygon", "coordinates": [ [ [ 103.8376126, 1.4230613 ], [ 103.8379858, 1.4231995 ], [ 103.8383238, 1.4233494 ], [ 103.8396827, 1.4243846 ], [ 103.8392082, 1.4249159 ], [ 103.8386309, 1.4254783 ], [ 103.837624, 1.4244202 ], [ 103.8376126, 1.4230613 ] ] ] } },
{ "type": "Feature", "properties": { "id": "way/1345623876", "name": "Crawfurd Hospital", "operator": "Crawfurd Medical", "emergency": "yes", "postcode": "289891", "name_zh": "福德医院", "name_ms": "Hospital Crawfurd", "name_ta": null }, "geometry": { "type": "Polygon", "coordinates": [ [ [ 103.8130552, 1.326696 ], [ 103.813575, 1.3266449 ], [ 103.8136019, 1.3269185 ], [ 103.8130809, 1.3269576 ], [ 103.8130552, 1.326696 ] ] ] } },
{ "type": "Feature", "properties": { "id": "way/74715098", "name": "Mount Alvernia Hospital", "operator": null, "emergency": "yes", "postcode": "574623", "name_zh": "安微尼亚山医院", "name_ms": "Hospital Mount Alvernia", "name_ta": null }, "geometry": { "type": "Polygon", "coordinates": [ [ [ 103.8365867, 1.341707 ], [ 103.836669, 1.3412535 ], [ 103.8392761, 1.3415967 ], [ 103.8389913, 1.3431506 ], [ 103.8366206, 1.3418236 ], [ 103.8365867, 1.341707 ] ] ] } },
{ "type": "Feature", "properties": { "id": "way/33570275", "name": "Sengkang General & Community Hospital", "operator": "SingHealth", "emergency": null, "postcode": "544886", "name_zh": null, "name_ms": "Hospital Masyarakat Sengkang", "name_ta": null }, "geometry": { "type": "Polygon", "coordinates": [ [ [ 103.8907981, 1.3956492 ], [ 103.8927431, 1.395247 ], [ 103.892383, 1.3939683 ], [ 103.8929161, 1.393782 ], [ 103.8930963, 1.3937476 ], [ 103.8933548, 1.3936591 ], [ 103.8934401, 1.3936612 ], [ 103.8935044, 1.3936803 ], [ 103.893561, 1.3937237 ], [ 103.8936007, 1.3937849 ], [ 103.8937102, 1.394113 ], [ 103.89375, 1.3943467 ], [ 103.8938046, 1.3945124 ], [ 103.8939003, 1.3946781 ], [ 103.8941277, 1.3953396 ], [ 103.894193, 1.3956129 ], [ 103.8942544, 1.3957876 ], [ 103.8942557, 1.395875 ], [ 103.8942091, 1.3959489 ], [ 103.8941341, 1.3959935 ], [ 103.8925432, 1.396482 ], [ 103.8923526, 1.3964996 ], [ 103.8921863, 1.3965404 ], [ 103.8920927, 1.3965824 ], [ 103.8918215, 1.3966496 ], [ 103.8911396, 1.3967591 ], [ 103.8910493, 1.3967378 ], [ 103.8909693, 1.3966817 ], [ 103.8909278, 1.3966155 ], [ 103.8909116, 1.3965314 ], [ 103.8909209, 1.3963427 ], [ 103.8908868, 1.3960664 ], [ 103.8908381, 1.3959604 ], [ 103.8907981, 1.3956492 ] ] ] } }
]
}
